[{"OBJECT_NAME":"GEESAT-5 10","OBJECT_ID":"2025-201K","EPOCH":"2026-03-09T16:31:10.209504","MEAN_MOTION":14.83772929,"ECCENTRICITY":0.00080977,"INCLINATION":49.9812,"RA_OF_ASC_NODE":140.3139,"ARG_OF_PERICENTER":261.0647,"MEAN_ANOMALY":98.9375,"EPHEMERIS_TYPE":0,"CLASSIFICATION_TYPE":"U","NORAD_CAT_ID":65559,"ELEMENT_SET_NO":999,"REV_AT_EPOCH":2702,"BSTAR":0.00035102112,"MEAN_MOTION_DOT":2.712e-5,"MEAN_MOTION_DDOT":0},{"OBJECT_NAME":"COSMOS 2251 DEB","OBJECT_ID":"1993-036LH","EPOCH":"2026-03-09T22:01:19.578144","MEAN_MOTION":14.80785224,"ECCENTRICITY":0.00862249,"INCLINATION":74.0187,"RA_OF_ASC_NODE":230.5997,"ARG_OF_PERICENTER":329.6727,"MEAN_ANOMALY":156.0627,"EPHEMERIS_TYPE":0,"CLASSIFICATION_TYPE":"U","NORAD_CAT_ID":34136,"ELEMENT_SET_NO":999,"REV_AT_EPOCH":91300,"BSTAR":0.00043945141,"MEAN_MOTION_DOT":3.573e-5,"MEAN_MOTION_DDOT":0}]
